{
  "type": "FeatureCollection",
  "features": [
    {
      "type": "Feature",
      "properties": {
        "norad_id": 39227,
        "name": "ARIRANG-5 (KOMPSAT-5)",
        "group": "resource",
        "lat": 32.32178007002975,
        "lon": 10.551389168735048,
        "alt_km": 552.1142162458973,
        "timestamp": "2025-12-27T14:26:30.173539+00:00",
        "meta_object_name": "ARIRANG-5 (KOMPSAT-5)",
        "meta_object_id": "2013-042A",
        "meta_epoch": "2025-12-27T05:48:30.342240",
        "meta_mean_motion": 15.04492501,
        "meta_eccentricity": 0.00029245,
        "meta_inclination": 97.6167,
        "meta_ra_of_asc_node": 185.34,
        "meta_arg_of_pericenter": 32.1514,
        "meta_mean_anomaly": 327.989,
        "meta_ephemeris_type": 0,
        "meta_classification_type": "U",
        "meta_norad_cat_id": 39227,
        "meta_element_set_no": 999,
        "meta_rev_at_epoch": 67800,
        "meta_bstar": 0.00016247714,
        "meta_mean_motion_dot": 2.213e-05,
        "meta_mean_motion_ddot": 0,
        "tle_line1": "1 39227U 13042A   25361.24201785  .00002213  00000+0  16248-3 0  9990",
        "tle_line2": "2 39227  97.6167 185.3400 0002924  32.1514 327.9890 15.04492501678005"
      },
      "geometry": {
        "type": "Point",
        "coordinates": [
          10.551389168735048,
          32.32178007002975
        ]
      }
    },
    {
      "type": "Feature",
      "properties": {
        "norad_id": 39418,
        "name": "SKYSAT-A",
        "group": "resource",
        "lat": -1.7081004607398367,
        "lon": -128.86454005007195,
        "alt_km": 519.2183982228607,
        "timestamp": "2025-12-27T14:26:30.173550+00:00",
        "meta_object_name": "SKYSAT-A",
        "meta_object_id": "2013-066C",
        "meta_epoch": "2025-12-27T02:31:13.632096",
        "meta_mean_motion": 15.11707767,
        "meta_eccentricity": 0.00218076,
        "meta_inclination": 97.4087,
        "meta_ra_of_asc_node": 50.8762,
        "meta_arg_of_pericenter": 185.5174,
        "meta_mean_anomaly": 174.582,
        "meta_ephemeris_type": 0,
        "meta_classification_type": "U",
        "meta_norad_cat_id": 39418,
        "meta_element_set_no": 999,
        "meta_rev_at_epoch": 66247,
        "meta_bstar": 0.00026895435,
        "meta_mean_motion_dot": 4.542e-05,
        "meta_mean_motion_ddot": 0,
        "tle_line1": "1 39418U 13066C   25361.10501889  .00004542  00000+0  26895-3 0  9997",
        "tle_line2": "2 39418  97.4087  50.8762 0021807 185.5174 174.5820 15.11707767662473"
      },
      "geometry": {
        "type": "Point",
        "coordinates": [
          -128.86454005007195,
          -1.7081004607398367
        ]
      }
    },
    {
      "type": "Feature",
      "properties": {
        "norad_id": 39419,
        "name": "DUBAISAT-2",
        "group": "resource",
        "lat": 28.51860496070535,
        "lon": 175.6284419814746,
        "alt_km": 542.0071375872685,
        "timestamp": "2025-12-27T14:26:30.173560+00:00",
        "meta_object_name": "DUBAISAT-2",
        "meta_object_id": "2013-066D",
        "meta_epoch": "2025-12-27T05:48:47.312928",
        "meta_mean_motion": 15.08501922,
        "meta_eccentricity": 0.00096302,
        "meta_inclination": 97.447,
        "meta_ra_of_asc_node": 351.2041,
        "meta_arg_of_pericenter": 264.1642,
        "meta_mean_anomaly": 95.8489,
        "meta_ephemeris_type": 0,
        "meta_classification_type": "U",
        "meta_norad_cat_id": 39419,
        "meta_element_set_no": 999,
        "meta_rev_at_epoch": 66045,
        "meta_bstar": 0.00055327126,
        "meta_mean_motion_dot": 8.58e-05,
        "meta_mean_motion_ddot": 0,
        "tle_line1": "1 39419U 13066D   25361.24221427  .00008580  00000+0  55327-3 0  9998",
        "tle_line2": "2 39419  97.4470 351.2041 0009630 264.1642  95.8489 15.08501922660455"
      },
      "geometry": {
        "type": "Point",
        "coordinates": [
          175.6284419814746,
          28.51860496070535
        ]
      }
    },
    {
      "type": "Feature",
      "properties": {
        "norad_id": 39574,
        "name": "GPM-CORE",
        "group": "resource",
        "lat": 60.64439465412101,
        "lon": -73.25852353489013,
        "alt_km": 430.41941328647044,
        "timestamp": "2025-12-27T14:26:30.173571+00:00",
        "meta_object_name": "GPM-CORE",
        "meta_object_id": "2014-009C",
        "meta_epoch": "2025-12-27T06:12:56.734272",
        "meta_mean_motion": 15.44698621,
        "meta_eccentricity": 0.00089892,
        "meta_inclination": 64.9729,
        "meta_ra_of_asc_node": 164.0576,
        "meta_arg_of_pericenter": 251.976,
        "meta_mean_anomaly": 108.0401,
        "meta_ephemeris_type": 0,
        "meta_classification_type": "U",
        "meta_norad_cat_id": 39574,
        "meta_element_set_no": 999,
        "meta_rev_at_epoch": 67125,
        "meta_bstar": 0.00021303728,
        "meta_mean_motion_dot": 9.769e-05,
        "meta_mean_motion_ddot": 0,
        "tle_line1": "1 39574U 14009C   25361.25898998  .00009769  00000+0  21304-3 0  9990",
        "tle_line2": "2 39574  64.9729 164.0576 0008989 251.9760 108.0401 15.44698621671251"
      },
      "geometry": {
        "type": "Point",
        "coordinates": [
          -73.25852353489013,
          60.64439465412101
        ]
      }
    },
    {
      "type": "Feature",
      "properties": {
        "norad_id": 39634,
        "name": "SENTINEL-1A",
        "group": "resource",
        "lat": 29.11439419478234,
        "lon": 2.0283889980492122,
        "alt_km": 693.8314038459894,
        "timestamp": "2025-12-27T14:26:30.173581+00:00",
        "meta_object_name": "SENTINEL-1A",
        "meta_object_id": "2014-016A",
        "meta_epoch": "2025-12-27T07:43:27.753600",
        "meta_mean_motion": 14.59200696,
        "meta_eccentricity": 0.00012784,
        "meta_inclination": 98.1807,
        "meta_ra_of_asc_node": 6.3478,
        "meta_arg_of_pericenter": 84.2992,
        "meta_mean_anomaly": 275.8353,
        "meta_ephemeris_type": 0,
        "meta_classification_type": "U",
        "meta_norad_cat_id": 39634,
        "meta_element_set_no": 999,
        "meta_rev_at_epoch": 62495,
        "meta_bstar": 7.2583587e-05,
        "meta_mean_motion_dot": 2.96e-06,
        "meta_mean_motion_ddot": 0,
        "tle_line1": "1 39634U 14016A   25361.32184900  .00000296  00000+0  72584-4 0  9997",
        "tle_line2": "2 39634  98.1807   6.3478 0001278  84.2992 275.8353 14.59200696624951"
      },
      "geometry": {
        "type": "Point",
        "coordinates": [
          2.0283889980492122,
          29.11439419478234
        ]
      }
    },
    {
      "type": "Feature",
      "properties": {
        "norad_id": 39731,
        "name": "KAZEOSAT 1",
        "group": "resource",
        "lat": 10.93795075065546,
        "lon": -105.20098884265131,
        "alt_km": 752.8185151785046,
        "timestamp": "2025-12-27T14:26:30.173592+00:00",
        "meta_object_name": "KAZEOSAT 1",
        "meta_object_id": "2014-024A",
        "meta_epoch": "2025-12-27T07:00:01.736064",
        "meta_mean_motion": 14.42070699,
        "meta_eccentricity": 0.00012584,
        "meta_inclination": 98.3411,
        "meta_ra_of_asc_node": 72.8713,
        "meta_arg_of_pericenter": 97.3876,
        "meta_mean_anomaly": 262.7457,
        "meta_ephemeris_type": 0,
        "meta_classification_type": "U",
        "meta_norad_cat_id": 39731,
        "meta_element_set_no": 999,
        "meta_rev_at_epoch": 61378,
        "meta_bstar": 8.3181365e-05,
        "meta_mean_motion_dot": 2.3e-06,
        "meta_mean_motion_ddot": 0,
        "tle_line1": "1 39731U 14024A   25361.29168676  .00000230  00000+0  83181-4 0  9995",
        "tle_line2": "2 39731  98.3411  72.8713 0001258  97.3876 262.7457 14.42070699613785"
      },
      "geometry": {
        "type": "Point",
        "coordinates": [
          -105.20098884265131,
          10.93795075065546
        ]
      }
    },
    {
      "type": "Feature",
      "properties": {
        "norad_id": 39766,
        "name": "ALOS-2",
        "group": "resource",
        "lat": -69.34645740445546,
        "lon": -105.44242653812142,
        "alt_km": 639.1248722292039,
        "timestamp": "2025-12-27T14:26:30.173602+00:00",
        "meta_object_name": "ALOS-2",
        "meta_object_id": "2014-029A",
        "meta_epoch": "2025-12-26T21:04:46.534368",
        "meta_mean_motion": 14.79473782,
        "meta_eccentricity": 0.00013773,
        "meta_inclination": 97.9215,
        "meta_ra_of_asc_node": 95.5225,
        "meta_arg_of_pericenter": 99.181,
        "meta_mean_anomaly": 260.9558,
        "meta_ephemeris_type": 0,
        "meta_classification_type": "U",
        "meta_norad_cat_id": 39766,
        "meta_element_set_no": 999,
        "meta_rev_at_epoch": 62610,
        "meta_bstar": 0.00017003388,
        "meta_mean_motion_dot": 1.219e-05,
        "meta_mean_motion_ddot": 0,
        "tle_line1": "1 39766U 14029A   25360.87831637  .00001219  00000+0  17003-3 0  9992",
        "tle_line2": "2 39766  97.9215  95.5225 0001377  99.1810 260.9558 14.79473782626102"
      },
      "geometry": {
        "type": "Point",
        "coordinates": [
          -105.44242653812142,
          -69.34645740445546
        ]
      }
    }
  ]
}